0 BREEZE-M DEB
1 38594U 08011AR  13284.49488655  .00000053  00000-0 -11263-3 0  2220
2 38594 048.8325 186.9367 6593848 247.9460 032.7900 02.97067781 28778
0 BREEZE-M DEB
1 38594U 08011AR  13293.58187997 -.00001473  00000-0 -12104-1 0  2237
2 38594 048.8113 183.7841 6594408 250.7545 030.9859 02.97056124 29047
